1     5U 58002B   20004.25808406 +.00000204 +00000-0 +25697-3 0  9997
2     5 034.2553 017.2404 1845519 328.9445 021.3764 10.84795732187314
1     5U 58002B   20005.17916936  .00000203  00000-0  25777-3 0  9995
2     5  34.2546  14.4034 1845493 333.0885  18.4593 10.84796075187510
1    11U 59001A   20004.92095594 +.00000281 +00000-0 +15460-3 0  9996
2    11 032.8685 313.1484 1467962 042.6596 327.9080 11.85649558255448
1    11U 59001A   20005.17371759  .00000282  00000-0  15511-3 0  9992
2    11  32.8684 312.1995 1467965  44.0865 326.7807 11.85649716597226
1    16U 58002A   20004.72847591 -.00000102 +00000-0 -16578-3 0  9996
2    16 034.2775 270.2215 2029024 263.2566 073.4538 10.48721322441543
